QIANFAN-25              
1 61558U 24185G   25342.31002681  .00000827  00000+0  49738-3 0  9992
2 61558  88.9809  78.6902 0008432 337.6870  22.3944 14.05903448 68884
QIANFAN-26              
1 61559U 24185H   25342.31857599  .00000489  00000+0  47648-3 0  9991
2 61559  88.9813  80.2270 0006315  42.5831 317.5824 13.77809453 68069
QIANFAN-27              
1 61560U 24185J   25342.26177476  .00001179  00000+0  47607-3 0  9998
2 61560  88.9806  77.4677 0005951 313.7246  46.3454 14.27325527 69529
QIANFAN-28              
1 61561U 24185K   25342.31622329  .00001829  00000+0  73154-3 0  9995
2 61561  88.9825  77.4642 0005273 313.0236  47.0516 14.28022292 69545
QIANFAN-29              
1 61562U 24185L   25342.29528975  .00000299  00000+0  44456-3 0  9998
2 61562  88.9789  81.7689 0011449  70.3766 289.8620 13.51008849 67195
QIANFAN-30              
1 61563U 24185M   25342.26676159  .00000220  00000+0  32707-3 0  9994
2 61563  88.9810  81.2955 0008765  59.9669 300.2350 13.49987145 67464
QIANFAN-31              
1 61564U 24185N   25342.26144750  .00000348  00000+0  46593-3 0  9991
2 61564  88.9794  81.1052 0008036  56.0002 304.1916 13.57963619 67553
QIANFAN-32              
1 61565U 24185P   25342.31176621  .00000309  00000+0  46128-3 0  9991
2 61565  88.9853  81.4237 0011097  80.8395 279.4011 13.50733711 67448
